QIANFAN-14 OBJECT T     
1 69865U 26155T   26195.17070522  .00000264  00000+0  10250-3 0  9992
2 69865  89.0067  61.0631 0030060 227.4422 132.4234 14.26768552  1236
QIANFAN-14 OBJECT U     
1 69866U 26155U   26195.17065424  .00000153  00000+0  57019-4 0  9990
2 69866  89.0068  61.0631 0030050 227.3965 132.4694 14.26776663  1229
QIANFAN-14 OBJECT V     
1 69867U 26155V   26195.17061022  .00000074  00000+0  24354-4 0  9999
2 69867  89.0067  61.0630 0030017 227.4907 132.3751 14.26784009  1235
CZ-8A R/B               
1 69868U 26155W   26194.90562610 -.00000096  00000+0 -28854-4 0  9994
2 69868  88.9660  61.0582 0105288 106.8821 254.3962 14.48268501  1201
CHUANG XIN 26 (CX-26)   
1 69972U 26158A   26194.51442212 -.00000212  00000+0 -21871-4 0  9997
2 69972  49.9860 287.5119 0004887 294.2352  65.8050 14.25122238   462
CZ-10B DEB              
1 69973U 26158B   26194.58513205  .00000099  00000+0  11013-3 0  9993
2 69973  49.9846 287.2193 0005701 305.8104  54.2279 14.24885997   479
CZ-10B R/B              
1 69974U 26158C   26194.56253036  .00000143  00000+0  55130-4 0  9994
2 69974  49.9631 286.3519 0197945 194.8878 164.6170 14.64293949   481
